{
    "links": {
        "self": "http://www.neowsapp.com/rest/v1/neo/54097965?api_key=iIulBulltgU6a56xZRHN4H3l9WmuAYTsLGpBGhQ2"
    },
    "id": "54097965",
    "neo_reference_id": "54097965",
    "name": "(2020 XN)",
    "designation": "2020 XN",
    "nasa_jpl_url": "http://ssd.jpl.nasa.gov/sbdb.cgi?sstr=54097965",
    "absolute_magnitude_h": 24.493,
    "estimated_diameter": {
        "kilometers": {
            "estimated_diameter_min": 0.033570281,
            "estimated_diameter_max": 0.0750654304
        },
        "meters": {
            "estimated_diameter_min": 33.5702810063,
            "estimated_diameter_max": 75.0654303539
        },
        "miles": {
            "estimated_diameter_min": 0.0208595991,
            "estimated_diameter_max": 0.0466434815
        },
        "feet": {
            "estimated_diameter_min": 110.1387207368,
            "estimated_diameter_max": 246.2776665224
        }
    },
    "is_potentially_hazardous_asteroid": false,
    "close_approach_data": [
        {
            "close_approach_date": "2020-12-12",
            "close_approach_date_full": "2020-Dec-12 14:35",
            "epoch_date_close_approach": 1607783700000,
            "relative_velocity": {
                "kilometers_per_second": "13.0748094206",
                "kilometers_per_hour": "47069.3139142522",
                "miles_per_hour": "29247.0411929974"
            },
            "miss_distance": {
                "astronomical": "0.0104562824",
                "lunar": "4.0674938536",
                "kilometers": "1564237.575158488",
                "miles": "971972.1582556144"
            },
            "orbiting_body": "Earth"
        },
        {
            "close_approach_date": "2070-01-20",
            "close_approach_date_full": "2070-Jan-20 06:07",
            "epoch_date_close_approach": 3157423620000,
            "relative_velocity": {
                "kilometers_per_second": "5.5853354624",
                "kilometers_per_hour": "20107.2076647387",
                "miles_per_hour": "12493.8368959039"
            },
            "miss_distance": {
                "astronomical": "0.1477756763",
                "lunar": "57.4847380807",
                "kilometers": "22106926.412289481",
                "miles": "13736607.0976615978"
            },
            "orbiting_body": "Venus"
        },
        {
            "close_approach_date": "2150-08-23",
            "close_approach_date_full": "2150-Aug-23 18:12",
            "epoch_date_close_approach": 5700564720000,
            "relative_velocity": {
                "kilometers_per_second": "17.0530545552",
                "kilometers_per_hour": "61390.9963988478",
                "miles_per_hour": "38145.9777346063"
            },
            "miss_distance": {
                "astronomical": "0.075010529",
                "lunar": "29.179095781",
                "kilometers": "11221415.36597323",
                "miles": "6972664.181681374"
            },
            "orbiting_body": "Mars"
        },
        {
            "close_approach_date": "2188-04-09",
            "close_approach_date_full": "2188-Apr-09 18:39",
            "epoch_date_close_approach": 6888047940000,
            "relative_velocity": {
                "kilometers_per_second": "16.1940236847",
                "kilometers_per_hour": "58298.4852649243",
                "miles_per_hour": "36224.4115803081"
            },
            "miss_distance": {
                "astronomical": "0.0804775653",
                "lunar": "31.3057729017",
                "kilometers": "12039272.351665911",
                "miles": "7480856.9473791318"
            },
            "orbiting_body": "Mars"
        }
    ],
    "orbital_data": {
        "orbit_id": "2",
        "orbit_determination_date": "2020-12-08 05:24:05",
        "first_observation_date": "2020-12-05",
        "last_observation_date": "2020-12-08",
        "data_arc_in_days": 3,
        "observations_used": 41,
        "orbit_uncertainty": "8",
        "minimum_orbit_intersection": ".00946941",
        "jupiter_tisserand_invariant": "3.585",
        "epoch_osculation": "2459189.5",
        "eccentricity": ".5832748486591591",
        "semi_major_axis": "2.017314760334071",
        "inclination": "6.091844095775691",
        "ascending_node_longitude": "75.34973446560214",
        "orbital_period": "1046.547455576791",
        "perihelion_distance": ".8406657988023277",
        "perihelion_argument": "58.29796525485042",
        "aphelion_distance": "3.193963721865814",
        "perihelion_time": "2459232.978729547613",
        "mean_anomaly": "345.0438290650526",
        "mean_motion": ".3439882234500209",
        "equinox": "J2000",
        "orbit_class": {
            "orbit_class_type": "APO",
            "orbit_class_description": "Near-Earth asteroid orbits which cross the Earth’s orbit similar to that of 1862 Apollo",
            "orbit_class_range": "a (semi-major axis) > 1.0 AU; q (perihelion) < 1.017 AU"
        }
    },
    "is_sentry_object": false
}